      2.10          N: GNSS NAV DATA                        RINEX VERSION / TYPE
fic2rin                                 03/18/2022 00:17:25 PGM / RUN BY / DATE
                                                            END OF HEADER
14 22  3 17 12  0  0.0-9.467545896769e-05-3.637978807092e-12 0.000000000000e+00
    4.300000000000e+01-2.821875000000e+01 5.260933424708e-09 8.194125126202e-01
   -1.538544893265e-06 1.567434635945e-03 3.373250365257e-06 5.153643457413e+03
    3.888000000000e+05 9.313225746155e-09 1.802949495878e+00-3.725290298462e-09
    9.529907534444e-01 3.068437500000e+02 3.028354737965e+00-8.609644340531e-09
   -3.807301446530e-10 1.000000000000e+00 2.201000000000e+03 0.000000000000e+00
    2.400000000000e+00 0.000000000000e+00-7.450580596924e-09 5.550000000000e+02
    3.816000000000e+05 4.000000000000e+00
18 22  3 17 12  0  0.0 2.178135327995e-04-8.753886504564e-12 0.000000000000e+00
    1.150000000000e+02 1.000000000000e+02 4.189460222120e-09 2.311427761844e+00
    5.226582288742e-06 2.133619738743e-03 7.953494787216e-06 5.153616649628e+03
    3.888000000000e+05-4.656612873077e-08-2.405918478836e+00 3.725290298462e-08
    9.710387986579e-01 2.304062500000e+02 3.087723767449e+00-8.006047769739e-09
    4.618049503155e-10 1.000000000000e+00 2.201000000000e+03 0.000000000000e+00
    2.400000000000e+00 0.000000000000e+00-8.381903171539e-09 8.830000000000e+02
    3.816000000000e+05 4.000000000000e+00
28 22  3 17 12  0  0.0 3.785630688071e-04-8.299139153678e-12 0.000000000000e+00
    8.800000000000e+01-3.328125000000e+01 4.865559812953e-09-1.549125363495e+00
   -1.586973667145e-06 1.671706384514e-02 4.321336746216e-06 5.153682727814e+03
    3.888000000000e+05-2.793967723846e-07 1.856813975709e+00 3.464519977570e-07
    9.686719873850e-01 3.012812500000e+02-1.284951701590e+00-8.438208628117e-09
   -4.325180161115e-10 1.000000000000e+00 2.201000000000e+03 0.000000000000e+00
    2.400000000000e+00 6.300000000000e+01-1.117587089539e-08 8.800000000000e+01
    3.816000000000e+05 4.000000000000e+00
 1 22  3 17 14  0  0.0 4.067705012858e-04-9.094947017729e-12 0.000000000000e+00
    1.400000000000e+01 1.123437500000e+02 3.693010971588e-09 3.127019743941e+00
    5.729496479034e-06 1.154449139722e-02 8.616596460342e-06 5.153669408798e+03
    3.960000000000e+05 7.264316082001e-08-2.413339717423e+00-2.980232238770e-08
    9.872560209132e-01 2.271562500000e+02 8.841520299438e-01-7.596745006351e-09
    5.382367054335e-10 1.000000000000e+00 2.201000000000e+03 0.000000000000e+00
    2.400000000000e+00 0.000000000000e+00 5.122274160385e-09 1.400000000000e+01
    3.888000000000e+05 4.000000000000e+00
 4 22  3 17 14  0  0.0-1.829909160733e-04 2.728484105319e-12 0.000000000000e+00
    5.000000000000e+00-8.037500000000e+01 4.306607958936e-09-1.412455761721e+00
   -4.395842552185e-06 1.738825114444e-03 1.175142824650e-05 5.153649909973e+03
    3.960000000000e+05 3.911554813385e-08-2.967617991258e-01 1.303851604462e-08
    9.616065933801e-01 1.510625000000e+02-3.015116844930e+00-7.927473068216e-09
   -1.425059359442e-10 1.000000000000e+00 2.201000000000e+03 0.000000000000e+00
    2.400000000000e+00 0.000000000000e+00-4.190951585770e-09 5.000000000000e+00
    3.888000000000e+05 4.000000000000e+00
 2 22  3 17 14  0  0.0-6.523504853249e-04-4.547473508865e-13 0.000000000000e+00
    3.600000000000e+01 1.190625000000e+02 4.060883437809e-09-3.021542962753e+00
    6.198883056641e-06 2.060368121602e-02 9.942799806595e-06 5.153631849289e+03
    3.960000000000e+05 2.700835466385e-07-2.503202007383e+00 5.960464477539e-08
    9.655714232169e-01 1.871250000000e+02-1.431614707425e+00-7.606745422908e-09
    4.743054710124e-10 1.000000000000e+00 2.201000000000e+03 0.000000000000e+00
    2.400000000000e+00 0.000000000000e+00-1.769512891769e-08 3.600000000000e+01
    3.888000000000e+05 4.000000000000e+00
 5 22  3 17 14  0  0.0-7.499475032091e-05-1.364242052659e-12 0.000000000000e+00
    4.300000000000e+01-2.046875000000e+01 4.979135972428e-09-4.972772844749e-01
   -8.828938007355e-07 5.881269113161e-03 1.830980181694e-06 5.153679662704e+03
    3.960000000000e+05-2.980232238770e-08-1.419140699009e+00 1.043081283569e-07
    9.595271986964e-01 3.435000000000e+02 1.006862281615e+00-8.720720395866e-09
    1.285767843106e-11 1.000000000000e+00 2.201000000000e+03 0.000000000000e+00
    2.400000000000e+00 0.000000000000e+00-1.117587089539e-08 4.300000000000e+01
    3.888000000000e+05 4.000000000000e+00
 3 22  3 17 14  0  0.0-1.675426028669e-04-1.671196514508e-11 0.000000000000e+00
    1.020000000000e+02-3.268750000000e+01 4.626621288776e-09 1.989548399534e+00
   -1.646578311920e-06 3.953078063205e-03 2.192333340645e-06 5.153656837463e+03
    3.960000000000e+05-9.872019290924e-08-1.378320003463e+00-1.024454832077e-07
    9.725299861661e-01 3.418125000000e+02 9.450121211252e-01-8.428922527028e-09
   -2.285809498855e-11 1.000000000000e+00 2.201000000000e+03 0.000000000000e+00
    2.400000000000e+00 0.000000000000e+00 1.862645149231e-09 1.020000000000e+02
    3.888000000000e+05 4.000000000000e+00
12 22  3 17 14  0  0.0-1.862556673586e-04-5.798028723802e-12 0.000000000000e+00
    3.300000000000e+01-2.896875000000e+01 4.811628995090e-09 1.813711367879e+00
   -1.868233084679e-06 8.732848800719e-03 3.937631845474e-06 5.153575428009e+03
    3.960000000000e+05-5.774199962616e-08 1.834682074718e+00-1.732259988785e-07
    9.695821169984e-01 3.075625000000e+02 1.259509060454e+00-8.296059849907e-09
   -3.421571093598e-10 1.000000000000e+00 2.201000000000e+03 0.000000000000e+00
    2.400000000000e+00 0.000000000000e+00-1.257285475731e-08 3.300000000000e+01
    3.888000000000e+05 4.000000000000e+00
 9 22  3 17 14  0  0.0-3.492650575936e-04 2.046363078989e-12 0.000000000000e+00
    2.700000000000e+01-8.909375000000e+01 4.486258299237e-09-5.168541536901e-01
   -4.902482032776e-06 2.166165271774e-03 1.202896237373e-05 5.153613718033e+03
    3.960000000000e+05 1.117587089539e-08-3.499417298491e-01-5.587935447693e-09
    9.545794868672e-01 1.461562500000e+02 1.875654931299e+00-8.084979628997e-09
   -2.157232714544e-10 1.000000000000e+00 2.201000000000e+03 0.000000000000e+00
    2.400000000000e+00 0.000000000000e+00 1.396983861923e-09 2.700000000000e+01
    3.888000000000e+05 4.000000000000e+00
10 22  3 17 14  0  0.0-3.496976569295e-04-1.159605744760e-11 0.000000000000e+00
    8.600000000000e+01-2.746875000000e+01 4.664480008601e-09 1.080471140634e+00
   -1.469627022743e-06 7.536385091953e-03 2.248212695122e-06 5.153676326752e+03
    3.960000000000e+05-5.401670932770e-08-1.381098895353e+00 6.332993507385e-08
    9.723498453597e-01 3.423125000000e+02-2.498725075758e+00-8.484281975828e-09
   -1.207193141583e-10 1.000000000000e+00 2.201000000000e+03 0.000000000000e+00
    2.400000000000e+00 0.000000000000e+00 2.328306436539e-09 8.600000000000e+01
    3.888000000000e+05 4.000000000000e+00
 7 22  3 17 14  0  0.0 3.164540976286e-04 1.932676241267e-12 0.000000000000e+00
    8.100000000000e+01 6.871875000000e+01 4.831272670470e-09 2.452423978948e+00
    3.388151526451e-06 1.569153030869e-02 9.989365935326e-06 5.153684799194e+03
    3.960000000000e+05-2.793967723846e-08 7.214160631319e-01-2.607703208923e-07
    9.511510242408e-01 1.818750000000e+02-2.285009863444e+00-7.972117784991e-09
    6.371693978058e-10 1.000000000000e+00 2.201000000000e+03 0.000000000000e+00
    2.400000000000e+00 0.000000000000e+00-1.117587089539e-08 8.100000000000e+01
    3.888000000000e+05 4.000000000000e+00
 6 22  3 17 14  0  0.0 2.344329841435e-04 1.284661266254e-11 0.000000000000e+00
    5.300000000000e+01 1.173125000000e+02 3.858017844786e-09-2.869330491292e+00
    6.055459380150e-06 2.697832533158e-03 8.925795555115e-06 5.153689044952e+03
    3.960000000000e+05 1.005828380585e-07-2.421609629898e+00 1.862645149231e-09
    9.866253891134e-01 2.220312500000e+02-9.165938899861e-01-7.817825643818e-09
    4.853773607725e-10 1.000000000000e+00 2.201000000000e+03 0.000000000000e+00
    2.400000000000e+00 0.000000000000e+00 3.725290298462e-09 5.300000000000e+01
    3.888000000000e+05 4.000000000000e+00
 8 22  3 17 14  0  0.0-6.019975990057e-05-1.477928890381e-12 0.000000000000e+00
    1.350000000000e+02-2.637500000000e+01 4.180174121031e-09-9.297390618095e-01
   -1.460313796997e-06 7.400047616102e-03 1.155771315098e-05 5.153733325958e+03
    3.960000000000e+05 1.471489667892e-07 2.790056122134e+00-1.303851604462e-07
    9.645737876957e-01 1.605000000000e+02 1.319719991978e-01-7.825325956236e-09
   -5.071639825584e-10 1.000000000000e+00 2.201000000000e+03 0.000000000000e+00
    2.400000000000e+00 0.000000000000e+00 5.122274160385e-09 1.350000000000e+02
    3.888000000000e+05 4.000000000000e+00
29 22  3 17 14  0  0.0-4.924139939249e-04-4.433786671143e-12 0.000000000000e+00
    1.600000000000e+01-2.265625000000e+01 3.743013054375e-09-8.015447662083e-01
   -1.205131411552e-06 1.936448272318e-03 1.242198050022e-05 5.153739202499e+03
    3.960000000000e+05-1.210719347000e-07 2.885437944952e+00 2.421438694000e-08
    9.818165330795e-01 1.514687500000e+02 2.233317116222e+00-7.580315750578e-09
   -4.246605459591e-10 1.000000000000e+00 2.201000000000e+03 0.000000000000e+00
    2.400000000000e+00 0.000000000000e+00-1.024454832077e-08 1.600000000000e+01
    3.888000000000e+05 4.000000000000e+00
32 22  3 17 14  0  0.0-8.657015860081e-05-7.389644451905e-12 0.000000000000e+00
    1.700000000000e+01-7.768750000000e+01 4.465900308388e-09-3.135258294378e-01
   -3.999099135399e-06 5.764555418864e-03 1.085549592972e-05 5.153585277557e+03
    3.960000000000e+05-3.166496753693e-08-3.386118301647e-01 1.043081283569e-07
    9.584289787797e-01 1.719375000000e+02-2.319228510639e+00-8.070693319629e-09
   -1.946509651369e-10 1.000000000000e+00 2.201000000000e+03 0.000000000000e+00
    2.400000000000e+00 0.000000000000e+00 4.656612873077e-10 1.700000000000e+01
    3.888000000000e+05 4.000000000000e+00
